[{"OBJECT_NAME":"HAWK-2A","OBJECT_ID":"2021-006CW","EPOCH":"2026-03-09T16:18:25.817472","MEAN_MOTION":15.33304498,"ECCENTRICITY":0.00064498,"INCLINATION":97.2459,"RA_OF_ASC_NODE":115.6184,"ARG_OF_PERICENTER":187.1463,"MEAN_ANOMALY":172.9689,"EPHEMERIS_TYPE":0,"CLASSIFICATION_TYPE":"U","NORAD_CAT_ID":47505,"ELEMENT_SET_NO":999,"REV_AT_EPOCH":28424,"BSTAR":0.0002543136,"MEAN_MOTION_DOT":8.113e-5,"MEAN_MOTION_DDOT":0},{"OBJECT_NAME":"STARLINK-36121","OBJECT_ID":"2025-286R","EPOCH":"2026-03-09T04:53:25.731456","MEAN_MOTION":15.30198288,"ECCENTRICITY":0.00010019,"INCLINATION":53.1624,"RA_OF_ASC_NODE":0.6176,"ARG_OF_PERICENTER":112.7165,"MEAN_ANOMALY":247.3942,"EPHEMERIS_TYPE":0,"CLASSIFICATION_TYPE":"U","NORAD_CAT_ID":66940,"ELEMENT_SET_NO":999,"REV_AT_EPOCH":1534,"BSTAR":0.00061351436,"MEAN_MOTION_DOT":0.00017854,"MEAN_MOTION_DDOT":0}]
